#cP2020  1  1  0  0  0.00000000      96 TRACK IGb14 FIT GRGS
## 2086 259200.00000000   900.00000000 58849 0.0000000000000
+   76   E01E02E03E04E05E07E08E09E11E12E13E14E15E18E19E21E24
+        E25E26E27E30E31E33E36R01R02R03R04R05R07R08R09R11R12
+        R13R14R15R16R17R18R19R20R21R22R23G01G02G03G05G06G07
+        G08G09G10G11G12G13G14G15G16G17G19G20G21G22G23G24G25
+        G26G27G28G29G30G31G32G18  0  0  0  0  0  0  0  0  0
++         4  5  4  5  4  4  5  4  5  5  5  4  5  6  5  4  4
++         4  5  5  4  4  5  5  6  5  6 11  5  4  5  5  6  6
++         7  6  5  6  5  5  6  6  5  5  6  5  5  5  4  5  4
++         4  4  4  4  5  4  4  4  4  4  4  4  5  5  4  4  4
++         4  4  4  4  4  4  4  5  0  0  0  0  0  0  0  0  0
%c M  cc GPS ccc cccc cccc cccc cccc ccccc ccccc ccccc ccccc
%c cc cc ccc ccc cccc cccc cccc cccc ccccc ccccc ccccc ccccc
%f  0.0000000  0.000000000  0.00000000000  0.000000000000000
%f  0.0000000  0.000000000  0.00000000000  0.000000000000000
%i    0    0    0    0      0      0      0      0         0
%i    0    0    0    0      0      0      0      0         0
/* CNES/CLS/GRGS - TOULOUSE,FRANCE - Contact : igs-ac@cls.fr
/* PCV:IGS14_2086 OL/AL:FES2012  NONE     NN ORB:CoN CLK:CoN
/* CCCCCCCCCCCCCCCCCCCCCCCCCCCCCCCCCCCCCCCCCCCCCCCCCCCCCCCCC
/* CCCCCCCCCCCCCCCCCCCCCCCCCCCCCCCCCCCCCCCCCCCCCCCCCCCCCCCCC
*  2020  1  1 23 15  0.00000000
PE01 -26500.083568   1100.598654 -13131.177409   -764.806631
PE02  26482.366576  -1150.044536  13193.923557    102.839302
PE03  16393.026378  -5134.446171 -24113.500278   -250.418270
PE04  -6426.520899  23739.621025  16469.107511   -437.060503
PE05  16858.029578  16700.540519 -17699.346834   -417.695227
PE07  -7462.056156 -28632.594878    975.862637   -320.968412
PE08   6041.601342 -23889.120326 -16414.352916   6240.771485
PE09   7704.220529  28553.095254  -1052.750679   6202.269653
PE11   -175.507651  20101.017291  21733.968073    611.134841
PE12 -17507.481820  22928.425834   6669.341228   6022.219833
PE13    350.786759 -20154.838152 -21662.946139    396.966344
PE14  -9365.532902 -25088.868602 -15211.790942   -852.416213
PE15  17272.319416 -23029.954241  -6879.264932    882.300547
PE18   -757.238582  25857.220580   3628.399711   -948.715633
PE19 -16824.860241   2676.252931  24202.269092     -2.152819
PE21 -26640.424680 -11706.963915   5408.529714   -574.653012
PE24  11020.497034  17899.392760 -20859.462384   5685.077326
PE25  26607.284455  11755.399514  -5493.112829   -500.018652
PE26 -17041.426476  -5452.687039 -23567.312281   3695.208266
PE27 -11100.646524 -17791.947870  20891.167468    312.549802
PE30  11089.251626 -13337.495742  23982.526336   4258.230373
PE31 -10876.623034  13404.444435 -24035.873555   -471.149833
PE33 -24072.384761  12414.159259 -11929.838459   -471.196532
PE36  16802.066443   5454.952405  23762.851103    616.714584
PR01 -14485.122021  -6845.998200  19847.561656     55.012784
PR02  -4363.234776  13621.344374  21167.339243    405.233891
PR03   7066.705281  22985.871555   8615.679912      7.496081
PR04  14383.339140  19155.425038  -8755.529335 999999.999999
PR05  13464.763544   4555.537349 -21183.409309     42.333883
PR07  -7387.660098 -23029.821847  -8012.505082    -31.477700
PR08 -14398.033980 -19141.958274   8796.442099     13.373630
PR09  12705.870121  -9181.765155  20115.601038    109.222178
PR11 -20503.679885  -7479.348252  13251.612335     14.603512
PR12 -25317.926609     83.675404  -2959.390421     93.163947
PR13 -15601.525385   8109.986408 -18494.166588    -32.996590
PR14   3059.678156  11073.431266 -22762.076458     46.654601
PR15  19880.708827   7734.653089 -13971.705069    105.598603
PR16  25345.068296   -745.775827   3323.800796     -0.751101
PR17  -6252.606495  20721.374294  13481.648715    288.825133
PR18   5742.484305   9976.258537  22790.377489     20.065902
PR19  14778.565955  -5587.378384  20034.854063    -71.909653
PR20  15820.839086 -19574.464006   4027.376594   -400.408373
PR21   5807.269633 -20429.890981 -14140.781824    -95.515328
PR22  -7699.262116  -7228.797933 -23201.670096     -8.002544
PR23 -16242.318397  11358.650921 -16057.018913    277.057319
PG01   5094.807590 -17189.289765 -19687.424620   -248.924335
PG02 -21804.628134  14901.433392   2811.639175   -377.866333
PG03  -6971.415211 -19050.323466 -17249.789686    -64.011066
PG05 -13896.652480   8758.556669  20769.991235     -5.505679
PG06 -24315.941717   4903.522003  -9487.802268   -170.570974
PG07 -12964.595848 -10388.088021  21097.665307   -182.901472
PG08   6307.250769 -24604.902246   7371.325846    -18.789734
PG09  -7483.816780 -22398.791237  12085.598536   -122.610331
PG10  23673.989176  10628.491715  -6136.457611   -194.196423
PG11   5103.204551 -23069.577275 -12896.260207   -402.232925
PG12   1882.220730  18090.353343 -19639.067731    166.870995
PG13 -12853.147948  19102.852336  13048.898341    -22.774948
PG14  15349.573496  -6065.166493 -20442.832545    -41.316027
PG15  -3688.388200  25298.617801   6111.550633   -261.540922
PG16  15133.319077  -5822.055065  20931.895284   -109.164898
PG17 -13706.760490  -5931.909545 -21543.049426    191.265582
PG19 -15257.677727   2638.030242 -21874.084497   -218.237095
PG20  21681.317474  14736.497051   4802.867463    527.740084
PG21  15275.842503   8331.603031  20805.105522    -61.978678
PG22    906.433292 -16853.180711 -20310.299820   -780.303240
PG23  -2145.744147 -25935.698709   4497.031795   -145.813108
PG24  -6296.036269  18639.662421 -17861.038322     -7.009419
PG25  15066.560975  19220.793550 -10984.557047    -16.749908
PG26  21586.295917    314.080377  15589.192231    118.390768
PG27  12150.476037 -16665.328397  16434.052835   -168.495225
PG28 -22336.661654 -12032.915331  -7016.941753    747.569500
PG29   5107.135456  22988.113239  12234.393209      3.246628
PG30 -21748.742353  -2460.318234  15210.656326   -119.524721
PG31  25142.366454  -6121.194584  -7014.472369    -13.753710
PG32  14864.466532   4816.713522 -21429.628094    172.939244
PG18  12585.196296 -18725.675813 -14445.235842    110.672244
EOF
